start=new Date('2021-09-19T00:00:00.000Z').valueOf();
sats=[{"TLE_LINE2":"2 46341  53.0548 126.9459 0002261  78.5414 281.5828 15.06395458 58486","EPHEMERIS_TYPE":"0","CLASSIFICATION_TYPE":"U","DECAY_DATE":null,"MEAN_MOTION_DOT":"-0.00000512","SEMIMAJOR_AXIS":"6925.362","REV_AT_EPOCH":"5848","APOAPSIS":"548.793","MEAN_MOTION":"15.06395458","CENTER_NAME":"EARTH","GP_ID":"184973488","MEAN_ELEMENT_THEORY":"SGP4","MEAN_ANOMALY":"281.5828","TLE_LINE1":"1 46341U 20062S   21261.80343551 -.00000512  00000-0 -15425-4 0  9990","PERIOD":"95.592","TIME_SYSTEM":"UTC","RA_OF_ASC_NODE":"126.9459","RCS_SIZE":"LARGE","REF_FRAME":"TEME","COUNTRY_CODE":"US","LAUNCH_DATE":"2020-09-03","INCLINATION":"53.0548","NORAD_CAT_ID":"46341","FILE":"3118781","OBJECT_TYPE":"PAYLOAD","OBJECT_ID":"2020-062S","EPOCH":"2021-09-18T19:16:56.828064","SITE":"AFETR","PERIAPSIS":"545.662","ELEMENT_SET_NO":"999","BSTAR":"-0.00001542500000","MEAN_MOTION_DDOT":"0.0000000000000","ARG_OF_PERICENTER":"78.5414","OBJECT_NAME":"STARLINK-1760","ECCENTRICITY":"0.00022610"},{"REF_FRAME":"TEME","RCS_SIZE":"LARGE","COUNTRY_CODE":"US","LAUNCH_DATE":"2020-09-03","INCLINATION":"53.0547","OBJECT_TYPE":"PAYLOAD","FILE":"3118594","NORAD_CAT_ID":"46342","EPOCH":"2021-09-18T09:14:31.136640","SITE":"AFETR","PERIAPSIS":"545.885","OBJECT_ID":"2020-062T","MEAN_MOTION_DDOT":"0.0000000000000","ARG_OF_PERICENTER":"64.5616","BSTAR":"-0.00003623600000","ELEMENT_SET_NO":"999","ECCENTRICITY":"0.00019350","OBJECT_NAME":"STARLINK-1762","EPHEMERIS_TYPE":"0","TLE_LINE2":"2 46342  53.0547 148.8147 0001935  64.5616 295.5573 15.06396248 58131","DECAY_DATE":null,"CLASSIFICATION_TYPE":"U","REV_AT_EPOCH":"5813","SEMIMAJOR_AXIS":"6925.360","MEAN_MOTION_DOT":"-0.00000821","CENTER_NAME":"EARTH","GP_ID":"184945856","APOAPSIS":"548.565","MEAN_MOTION":"15.06396248","MEAN_ELEMENT_THEORY":"SGP4","MEAN_ANOMALY":"295.5573","TLE_LINE1":"1 46342U 20062T   21261.38508260 -.00000821  00000-0 -36236-4 0  9990","RA_OF_ASC_NODE":"148.8147","PERIOD":"95.592","TIME_SYSTEM":"UTC"},{"INCLINATION":"53.0543","REF_FRAME":"TEME","RCS_SIZE":"LARGE","COUNTRY_CODE":"US","LAUNCH_DATE":"2020-09-03","ELEMENT_SET_NO":"999","ARG_OF_PERICENTER":"80.6441","MEAN_MOTION_DDOT":"0.0000000000000","BSTAR":"0.00007797800000","OBJECT_NAME":"STARLINK-1764","ECCENTRICITY":"0.00021120","FILE":"3118781","NORAD_CAT_ID":"46343","OBJECT_TYPE":"PAYLOAD","OBJECT_ID":"2020-062U","EPOCH":"2021-09-18T17:04:15.759264","SITE":"AFETR","PERIAPSIS":"545.765","MEAN_MOTION_DOT":"0.00000880","REV_AT_EPOCH":"5846","SEMIMAJOR_AXIS":"6925.363","APOAPSIS":"548.690","MEAN_MOTION":"15.06395396","GP_ID":"184973990","CENTER_NAME":"EARTH","TLE_LINE2":"2 46343  53.0543 127.3477 0002112  80.6441 279.4787 15.06395396 58466","EPHEMERIS_TYPE":"0","CLASSIFICATION_TYPE":"U","DECAY_DATE":null,"PERIOD":"95.592","TIME_SYSTEM":"UTC","RA_OF_ASC_NODE":"127.3477","MEAN_ELEMENT_THEORY":"SGP4","MEAN_ANOMALY":"279.4787","TLE_LINE1":"1 46343U 20062U   21261.71129351  .00000880  00000-0  77978-4 0  9999"},{"EPHEMERIS_TYPE":"0","TLE_LINE2":"2 46344  53.0528 126.9674 0002193  70.8999 289.2227 15.06398508 58479","DECAY_DATE":null,"CLASSIFICATION_TYPE":"U","MEAN_MOTION_DOT":"0.00001116","SEMIMAJOR_AXIS":"6925.353","REV_AT_EPOCH":"5847","MEAN_MOTION":"15.06398508","APOAPSIS":"548.737","GP_ID":"184974741","CENTER_NAME":"EARTH","MEAN_ANOMALY":"289.2227","MEAN_ELEMENT_THEORY":"SGP4","TLE_LINE1":"1 46344U 20062V   21261.79606199  .00001116  00000-0  93800-4 0  9993","TIME_SYSTEM":"UTC","PERIOD":"95.592","RA_OF_ASC_NODE":"126.9674","REF_FRAME":"TEME","RCS_SIZE":"LARGE","LAUNCH_DATE":"2020-09-03","COUNTRY_CODE":"US","INCLINATION":"53.0528","FILE":"3118781","NORAD_CAT_ID":"46344","OBJECT_TYPE":"PAYLOAD","OBJECT_ID":"2020-062V","PERIAPSIS":"545.699","SITE":"AFETR","EPOCH":"2021-09-18T19:06:19.755936","ELEMENT_SET_NO":"999","BSTAR":"0.00009380000000","MEAN_MOTION_DDOT":"0.0000000000000","ARG_OF_PERICENTER":"70.8999","OBJECT_NAME":"STARLINK-1765","ECCENTRICITY":"0.00021930"},{"LAUNCH_DATE":"2020-09-03","COUNTRY_CODE":"US","REF_FRAME":"TEME","RCS_SIZE":"LARGE","INCLINATION":"53.0535","OBJECT_ID":"2020-062W","PERIAPSIS":"545.787","EPOCH":"2021-09-18T09:35:45.356928","SITE":"AFETR","NORAD_CAT_ID":"46345","FILE":"3118594","OBJECT_TYPE":"PAYLOAD","OBJECT_NAME":"STARLINK-1767","ECCENTRICITY":"0.00020830","ELEMENT_SET_NO":"999","BSTAR":"0.00001056900000","MEAN_MOTION_DDOT":"0.0000000000000","ARG_OF_PERICENTER":"68.5839","CLASSIFICATION_TYPE":"U","DECAY_DATE":null,"EPHEMERIS_TYPE":"0","TLE_LINE2":"2 46345  53.0535 148.7382 0002083  68.5839 291.5372 15.06394940 58137","MEAN_MOTION":"15.06394940","APOAPSIS":"548.672","GP_ID":"184947382","CENTER_NAME":"EARTH","MEAN_MOTION_DOT":"-0.00000124","SEMIMAJOR_AXIS":"6925.364","REV_AT_EPOCH":"5813","TLE_LINE1":"1 46345U 20062W   21261.39983052 -.00000124  00000-0  10569-4 0  9996","MEAN_ANOMALY":"291.5372","MEAN_ELEMENT_THEORY":"SGP4","TIME_SYSTEM":"UTC","PERIOD":"95.592","RA_OF_ASC_NODE":"148.7382"},{"ELEMENT_SET_NO":"999","MEAN_MOTION_DDOT":"0.0000000000000","ARG_OF_PERICENTER":"108.7273","BSTAR":"0.00002307500000","OBJECT_NAME":"STARLINK-1546","ECCENTRICITY":"0.00014770","FILE":"3118781","NORAD_CAT_ID":"46346","OBJECT_TYPE":"PAYLOAD","OBJECT_ID":"2020-062X","SITE":"AFETR","EPOCH":"2021-09-18T13:51:19.590048","PERIAPSIS":"462.083","INCLINATION":"53.0554","REF_FRAME":"TEME","RCS_SIZE":"LARGE","COUNTRY_CODE":"US","LAUNCH_DATE":"2020-09-03","PERIOD":"93.856","TIME_SYSTEM":"UTC","RA_OF_ASC_NODE":"44.7798","MEAN_ELEMENT_THEORY":"SGP4","MEAN_ANOMALY":"251.3889","TLE_LINE1":"1 46346U 20062X   21261.57731007  .00000400  00000-0  23075-4 0  9990","MEAN_MOTION_DOT":"0.00000400","REV_AT_EPOCH":"5961","SEMIMAJOR_AXIS":"6841.229","APOAPSIS":"464.104","MEAN_MOTION":"15.34269260","CENTER_NAME":"EARTH","GP_ID":"184973239","TLE_LINE2":"2 46346  53.0554  44.7798 0001477 108.7273 251.3889 15.34269260 59618","EPHEMERIS_TYPE":"0","CLASSIFICATION_TYPE":"U","DECAY_DATE":null},{"ELEMENT_SET_NO":"999","ARG_OF_PERICENTER":"90.8322","MEAN_MOTION_DDOT":"0.0000000000000","BSTAR":"0.00000113420000","OBJECT_NAME":"STARLINK-1547","ECCENTRICITY":"0.00020340","NORAD_CAT_ID":"46347","FILE":"3118781","OBJECT_TYPE":"PAYLOAD","OBJECT_ID":"2020-062Y","PERIAPSIS":"545.812","EPOCH":"2021-09-18T16:33:03.945600","SITE":"AFETR","INCLINATION":"53.0540","REF_FRAME":"TEME","RCS_SIZE":"LARGE","LAUNCH_DATE":"2020-09-03","COUNTRY_CODE":"US","TIME_SYSTEM":"UTC","PERIOD":"95.592","RA_OF_ASC_NODE":"102.4285","MEAN_ANOMALY":"269.2900","MEAN_ELEMENT_THEORY":"SGP4","TLE_LINE1":"1 46347U 20062Y   21261.68962900 -.00000265  00000-0  11342-5 0  9996","MEAN_MOTION_DOT":"-0.00000265","SEMIMAJOR_AXIS":"6925.356","REV_AT_EPOCH":"5879","MEAN_MOTION":"15.06397713","APOAPSIS":"548.629","CENTER_NAME":"EARTH","GP_ID":"184974491","TLE_LINE2":"2 46347  53.0540 102.4285 0002034  90.8322 269.2900 15.06397713 58797","EPHEMERIS_TYPE":"0","CLASSIFICATION_TYPE":"U","DECAY_DATE":null},{"INCLINATION":"53.0536","REF_FRAME":"TEME","RCS_SIZE":"LARGE","COUNTRY_CODE":"US","LAUNCH_DATE":"2020-09-03","MEAN_MOTION_DDOT":"0.0000000000000","ARG_OF_PERICENTER":"79.2174","BSTAR":"-0.00002136100000","ELEMENT_SET_NO":"999","ECCENTRICITY":"0.00016270","OBJECT_NAME":"STARLINK-1553","OBJECT_TYPE":"PAYLOAD","NORAD_CAT_ID":"46348","FILE":"3118781","EPOCH":"2021-09-18T19:11:38.749920","SITE":"AFETR","PERIAPSIS":"546.107","OBJECT_ID":"2020-062Z","SEMIMAJOR_AXIS":"6925.368","REV_AT_EPOCH":"5847","MEAN_MOTION_DOT":"-0.00000600","GP_ID":"184974241","CENTER_NAME":"EARTH","APOAPSIS":"548.360","MEAN_MOTION":"15.06393498","EPHEMERIS_TYPE":"0","TLE_LINE2":"2 46348  53.0536 126.9432 0001627  79.2174 280.8998 15.06393498 58478","DECAY_DATE":null,"CLASSIFICATION_TYPE":"U","RA_OF_ASC_NODE":"126.9432","PERIOD":"95.593","TIME_SYSTEM":"UTC","MEAN_ELEMENT_THEORY":"SGP4","MEAN_ANOMALY":"280.8998","TLE_LINE1":"1 46348U 20062Z   21261.79975405 -.00000600  00000-0 -21361-4 0  9998"},{"RCS_SIZE":"LARGE","REF_FRAME":"TEME","COUNTRY_CODE":"US","LAUNCH_DATE":"2020-09-03","INCLINATION":"53.0549","NORAD_CAT_ID":"46349","FILE":"3118781","OBJECT_TYPE":"PAYLOAD","OBJECT_ID":"2020-062AA","SITE":"AFETR","EPOCH":"2021-09-18T19:07:00.203232","PERIAPSIS":"545.993","ELEMENT_SET_NO":"999","MEAN_MOTION_DDOT":"0.0000000000000","ARG_OF_PERICENTER":"97.8018","BSTAR":"0.00006772400000","OBJECT_NAME":"STARLINK-1575","ECCENTRICITY":"0.00017810","EPHEMERIS_TYPE":"0","TLE_LINE2":"2 46349  53.0549 101.8249 0001781  97.8018 262.3173 15.06395924 58820","DECAY_DATE":null,"CLASSIFICATION_TYPE":"U","MEAN_MOTION_DOT":"0.00000727","SEMIMAJOR_AXIS":"6925.361","REV_AT_EPOCH":"5882","APOAPSIS":"548.459","MEAN_MOTION":"15.06395924","GP_ID":"184973489","CENTER_NAME":"EARTH","MEAN_ELEMENT_THEORY":"SGP4","MEAN_ANOMALY":"262.3173","TLE_LINE1":"1 46349U 20062AA  21261.79653013  .00000727  00000-0  67724-4 0  9998","PERIOD":"95.592","TIME_SYSTEM":"UTC","RA_OF_ASC_NODE":"101.8249"},{"TIME_SYSTEM":"UTC","PERIOD":"95.593","RA_OF_ASC_NODE":"147.7112","TLE_LINE1":"1 46350U 20062AB  21261.62835568  .00001070  00000-0  90718-4 0  9990","MEAN_ANOMALY":"292.0449","MEAN_ELEMENT_THEORY":"SGP4","MEAN_MOTION":"15.06393481","APOAPSIS":"548.736","CENTER_NAME":"EARTH","GP_ID":"184973740","MEAN_MOTION_DOT":"0.00001070","SEMIMAJOR_AXIS":"6925.369","REV_AT_EPOCH":"5817","CLASSIFICATION_TYPE":"U","DECAY_DATE":null,"EPHEMERIS_TYPE":"0","TLE_LINE2":"2 46350  53.0538 147.7112 0002170  68.0771 292.0449 15.06393481 58177","OBJECT_NAME":"STARLINK-1617","ECCENTRICITY":"0.00021700","ELEMENT_SET_NO":"999","MEAN_MOTION_DDOT":"0.0000000000000","BSTAR":"0.00009071800000","ARG_OF_PERICENTER":"68.0771","OBJECT_ID":"2020-062AB","PERIAPSIS":"545.731","SITE":"AFETR","EPOCH":"2021-09-18T15:04:49.930752","FILE":"3118781","NORAD_CAT_ID":"46350","OBJECT_TYPE":"PAYLOAD","INCLINATION":"53.0538","LAUNCH_DATE":"2020-09-03","COUNTRY_CODE":"US","RCS_SIZE":"LARGE","REF_FRAME":"TEME"}];
